{
  "type": "FeatureCollection",
  "features": [
    {
      "type": "Feature",
      "properties": {
        "norad_id": 27954,
        "name": "GALAXY 13 (HORIZONS-1)",
        "group": "intelsat",
        "lat": -0.8054015711540152,
        "lon": 28.306848570528356,
        "alt_km": 35791.8990736892,
        "timestamp": "2025-12-22T05:49:03.150102+00:00",
        "meta_object_name": "GALAXY 13 (HORIZONS-1)",
        "meta_object_id": "2003-044A",
        "meta_epoch": "2025-12-21T15:54:32.176224",
        "meta_mean_motion": 1.00270324,
        "meta_eccentricity": 0.0002372,
        "meta_inclination": 0.9596,
        "meta_ra_of_asc_node": 86.3555,
        "meta_arg_of_pericenter": 179.5653,
        "meta_mean_anomaly": 273.168,
        "meta_ephemeris_type": 0,
        "meta_classification_type": "U",
        "meta_norad_cat_id": 27954,
        "meta_element_set_no": 999,
        "meta_rev_at_epoch": 4479,
        "meta_bstar": 0,
        "meta_mean_motion_dot": 1.54e-06,
        "meta_mean_motion_ddot": 0,
        "tle_line1": "1 27954U 03044A   25355.66287241  .00000154  00000+0  00000+0 0  9992",
        "tle_line2": "2 27954   0.9596  86.3555 0002372 179.5653 273.1680  1.00270324 44790"
      },
      "geometry": {
        "type": "Point",
        "coordinates": [
          28.306848570528356,
          -0.8054015711540152
        ]
      }
    },
    {
      "type": "Feature",
      "properties": {
        "norad_id": 28358,
        "name": "INTELSAT 10-02",
        "group": "intelsat",
        "lat": 0.019602997446360366,
        "lon": 177.33467906352865,
        "alt_km": 35789.03412025572,
        "timestamp": "2025-12-22T05:49:03.150116+00:00",
        "meta_object_name": "INTELSAT 10-02",
        "meta_object_id": "2004-022A",
        "meta_epoch": "2025-12-21T18:19:41.702304",
        "meta_mean_motion": 1.00271041,
        "meta_eccentricity": 0.0001017,
        "meta_inclination": 0.0174,
        "meta_ra_of_asc_node": 69.5331,
        "meta_arg_of_pericenter": 238.1326,
        "meta_mean_anomaly": 56.8754,
        "meta_ephemeris_type": 0,
        "meta_classification_type": "U",
        "meta_norad_cat_id": 28358,
        "meta_element_set_no": 999,
        "meta_rev_at_epoch": 7877,
        "meta_bstar": 0,
        "meta_mean_motion_dot": 1.2e-07,
        "meta_mean_motion_ddot": 0,
        "tle_line1": "1 28358U 04022A   25355.76367711  .00000012  00000+0  00000+0 0  9993",
        "tle_line2": "2 28358   0.0174  69.5331 0001017 238.1326  56.8754  1.00271041 78771"
      },
      "geometry": {
        "type": "Point",
        "coordinates": [
          177.33467906352865,
          0.019602997446360366
        ]
      }
    },
    {
      "type": "Feature",
      "properties": {
        "norad_id": 28626,
        "name": "XM-3 (RHYTHM)",
        "group": "intelsat",
        "lat": 0.02683071398691946,
        "lon": -112.58609692395649,
        "alt_km": 36163.949036001024,
        "timestamp": "2025-12-22T05:49:03.150130+00:00",
        "meta_object_name": "XM-3 (RHYTHM)",
        "meta_object_id": "2005-008A",
        "meta_epoch": "2025-12-21T19:45:53.868096",
        "meta_mean_motion": 0.9894986,
        "meta_eccentricity": 0.0002004,
        "meta_inclination": 0.1969,
        "meta_ra_of_asc_node": 82.0313,
        "meta_arg_of_pericenter": 277.3595,
        "meta_mean_anomaly": 98.8435,
        "meta_ephemeris_type": 0,
        "meta_classification_type": "U",
        "meta_norad_cat_id": 28626,
        "meta_element_set_no": 999,
        "meta_rev_at_epoch": 4084,
        "meta_bstar": 0,
        "meta_mean_motion_dot": 9e-07,
        "meta_mean_motion_ddot": 0,
        "tle_line1": "1 28626U 05008A   25355.82354014  .00000090  00000+0  00000+0 0  9991",
        "tle_line2": "2 28626   0.1969  82.0313 0002004 277.3595  98.8435  0.98949860 40848"
      },
      "geometry": {
        "type": "Point",
        "coordinates": [
          -112.58609692395649,
          0.02683071398691946
        ]
      }
    },
    {
      "type": "Feature",
      "properties": {
        "norad_id": 28659,
        "name": "DIRECTV 8",
        "group": "intelsat",
        "lat": 0.03430244593514754,
        "lon": 59.27763669383282,
        "alt_km": 35795.621362394806,
        "timestamp": "2025-12-22T05:49:03.150142+00:00",
        "meta_object_name": "DIRECTV 8",
        "meta_object_id": "2005-019A",
        "meta_epoch": "2025-12-21T17:45:51.515712",
        "meta_mean_motion": 1.00270129,
        "meta_eccentricity": 0.0002933,
        "meta_inclination": 0.0248,
        "meta_ra_of_asc_node": 22.4105,
        "meta_arg_of_pericenter": 259.858,
        "meta_mean_anomaly": 315.7031,
        "meta_ephemeris_type": 0,
        "meta_classification_type": "U",
        "meta_norad_cat_id": 28659,
        "meta_element_set_no": 999,
        "meta_rev_at_epoch": 7529,
        "meta_bstar": 0,
        "meta_mean_motion_dot": 0,
        "meta_mean_motion_ddot": 0,
        "tle_line1": "1 28659U 05019A   25355.74017958  .00000000  00000+0  00000+0 0  9994",
        "tle_line2": "2 28659   0.0248  22.4105 0002933 259.8580 315.7031  1.00270129 75299"
      },
      "geometry": {
        "type": "Point",
        "coordinates": [
          59.27763669383282,
          0.03430244593514754
        ]
      }
    },
    {
      "type": "Feature",
      "properties": {
        "norad_id": 28702,
        "name": "GALAXY 28 (G-28)",
        "group": "intelsat",
        "lat": 0.44311209370553567,
        "lon": 89.61150693737818,
        "alt_km": 35798.74810202846,
        "timestamp": "2025-12-22T05:49:03.150154+00:00",
        "meta_object_name": "GALAXY 28 (G-28)",
        "meta_object_id": "2005-022A",
        "meta_epoch": "2025-12-20T00:49:30.482112",
        "meta_mean_motion": 1.00271047,
        "meta_eccentricity": 0.00029384,
        "meta_inclination": 2.8382,
        "meta_ra_of_asc_node": 81.1982,
        "meta_arg_of_pericenter": 194.0723,
        "meta_mean_anomaly": 97.2981,
        "meta_ephemeris_type": 0,
        "meta_classification_type": "U",
        "meta_norad_cat_id": 28702,
        "meta_element_set_no": 999,
        "meta_rev_at_epoch": 5017,
        "meta_bstar": 0,
        "meta_mean_motion_dot": -1.65e-06,
        "meta_mean_motion_ddot": 0,
        "tle_line1": "1 28702U 05022A   25354.03438058 -.00000165  00000+0  00000+0 0  9999",
        "tle_line2": "2 28702   2.8382  81.1982 0002938 194.0723  97.2981  1.00271047 50172"
      },
      "geometry": {
        "type": "Point",
        "coordinates": [
          89.61150693737818,
          0.44311209370553567
        ]
      }
    },
    {
      "type": "Feature",
      "properties": {
        "norad_id": 29236,
        "name": "GALAXY 16 (G-16)",
        "group": "intelsat",
        "lat": -0.00992281208465259,
        "lon": 79.30383480928649,
        "alt_km": 35796.590323029974,
        "timestamp": "2025-12-22T05:49:03.150166+00:00",
        "meta_object_name": "GALAXY 16 (G-16)",
        "meta_object_id": "2006-023A",
        "meta_epoch": "2025-12-21T16:09:00.789120",
        "meta_mean_motion": 1.00270904,
        "meta_eccentricity": 0.0002487,
        "meta_inclination": 0.0149,
        "meta_ra_of_asc_node": 168.3011,
        "meta_arg_of_pericenter": 104.604,
        "meta_mean_anomaly": 320.8302,
        "meta_ephemeris_type": 0,
        "meta_classification_type": "U",
        "meta_norad_cat_id": 29236,
        "meta_element_set_no": 999,
        "meta_rev_at_epoch": 7119,
        "meta_bstar": 0,
        "meta_mean_motion_dot": -1.04e-06,
        "meta_mean_motion_ddot": 0,
        "tle_line1": "1 29236U 06023A   25355.67292580 -.00000104  00000+0  00000+0 0  9996",
        "tle_line2": "2 29236   0.0149 168.3011 0002487 104.6040 320.8302  1.00270904 71193"
      },
      "geometry": {
        "type": "Point",
        "coordinates": [
          79.30383480928649,
          -0.00992281208465259
        ]
      }
    },
    {
      "type": "Feature",
      "properties": {
        "norad_id": 29494,
        "name": "DIRECTV 9S",
        "group": "intelsat",
        "lat": -0.18124377164478345,
        "lon": 77.1100951941935,
        "alt_km": 35797.595505656805,
        "timestamp": "2025-12-22T05:49:03.150178+00:00",
        "meta_object_name": "DIRECTV 9S",
        "meta_object_id": "2006-043A",
        "meta_epoch": "2025-12-21T14:25:40.685376",
        "meta_mean_motion": 1.00271497,
        "meta_eccentricity": 0.0002852,
        "meta_inclination": 1.9616,
        "meta_ra_of_asc_node": 83.1199,
        "meta_arg_of_pericenter": 193.4802,
        "meta_mean_anomaly": 289.0265,
        "meta_ephemeris_type": 0,
        "meta_classification_type": "U",
        "meta_norad_cat_id": 29494,
        "meta_element_set_no": 999,
        "meta_rev_at_epoch": 4960,
        "meta_bstar": 0,
        "meta_mean_motion_dot": -9.2e-07,
        "meta_mean_motion_ddot": 0,
        "tle_line1": "1 29494U 06043A   25355.60116534 -.00000092  00000+0  00000+0 0  9997",
        "tle_line2": "2 29494   1.9616  83.1199 0002852 193.4802 289.0265  1.00271497 49600"
      },
      "geometry": {
        "type": "Point",
        "coordinates": [
          77.1100951941935,
          -0.18124377164478345
        ]
      }
    }
  ]
}